CTC2_L_00517021-13
1 44866U 23915YR  26070.40849537  .00000000  00000+0  00000-0 0  9992
2 44866  97.4000 240.0000 0000000   0.0000 293.3333 15.21936487    19
CTC2_L_00517021-14
1 44867U 22803WP  26070.40849537  .00000000  00000+0  00000-0 0  9998
2 44867  97.4000 240.0000 0000000   0.0000 313.3333 15.21936487    13
CTC2_L_00517021-15
1 44868U 22634MG  26070.40849537  .00000000  00000+0  00000-0 0  9991
2 44868  97.4000 240.0000 0000000   0.0000 333.3333 15.21936487    16
CTC2_L_00517021-16
1 44869U 23117IM  26070.40849537  .00000000  00000+0  00000-0 0  9999
2 44869  97.4000 240.0000 0000000   0.0000 353.3333 15.21936487    19
CTC2_L_00517021-17
1 44870U 24204VY  26070.40849537  .00000000  00000+0  00000-0 0  9999
2 44870  97.4000 240.0000 0000000   0.0000  13.3333 15.21936487    14
CTC2_L_00517021-18
1 44871U 25773IB  26070.40849537  .00000000  00000+0  00000-0 0  9992
2 44871  97.4000 240.0000 0000000   0.0000  33.3333 15.21936487    17
CTC2_L_00517022-01
1 44872U 22738LG  26070.40849537  .00000000  00000+0  00000-0 0  9991
2 44872  97.4000 252.0000 0000000   0.0000  56.0000 15.21936487    14
CTC2_L_00517022-02
1 44873U 25629WN  26070.40849537  .00000000  00000+0  00000-0 0  9994
2 44873  97.4000 252.0000 0000000   0.0000  76.0000 15.21936487    17
CTC2_L_00517022-03
1 44874U 25509VJ  26070.40849537  .00000000  00000+0  00000-0 0  9992
2 44874  97.4000 252.0000 0000000   0.0000  96.0000 15.21936487    10
CTC2_L_00517022-04
1 44875U 25919IY  26070.40849537  .00000000  00000+0  00000-0 0  9998
2 44875  97.4000 252.0000 0000000   0.0000 116.0000 15.21936487    14
CTC2_L_00517022-05
1 44876U 24161QK  26070.40849537  .00000000  00000+0  00000-0 0  9997
2 44876  97.4000 252.0000 0000000   0.0000 136.0000 15.21936487    17
CTC2_L_00517022-06
1 44877U 26458MZ  26070.40849537  .00000000  00000+0  00000-0 0  9999
2 44877  97.4000 252.0000 0000000   0.0000 156.0000 15.21936487    10
CTC2_L_00517022-07
1 44878U 22224RI  26070.40849537  .00000000  00000+0  00000-0 0  9997
2 44878  97.4000 252.0000 0000000   0.0000 176.0000 15.21936487    13
CTC2_L_00517022-08
1 44879U 22942BS  26070.40849537  .00000000  00000+0  00000-0 0  9995
2 44879  97.4000 252.0000 0000000   0.0000 196.0000 15.21936487    16
CTC2_L_00517022-09
1 44880U 26750VZ  26070.40849537  .00000000  00000+0  00000-0 0  9998
2 44880  97.4000 252.0000 0000000   0.0000 216.0000 15.21936487    11
CTC2_L_00517022-10
1 44881U 25216JP  26070.40849537  .00000000  00000+0  00000-0 0  9995
2 44881  97.4000 252.0000 0000000   0.0000 236.0000 15.21936487    14
CTC2_L_00517022-11
1 44882U 24040BI  26070.40849537  .00000000  00000+0  00000-0 0  9990
2 44882  97.4000 252.0000 0000000   0.0000 256.0000 15.21936487    17
CTC2_L_00517022-12
1 44883U 25840QZ  26070.40849537  .00000000  00000+0  00000-0 0  9990
2 44883  97.4000 252.0000 0000000   0.0000 276.0000 15.21936487    10
CTC2_L_00517022-13
1 44884U 25537ZP  26070.40849537  .00000000  00000+0  00000-0 0  9994
2 44884  97.4000 252.0000 0000000   0.0000 296.0000 15.21936487    13
CTC2_L_00517022-14
1 44885U 24427FD  26070.40849537  .00000000  00000+0  00000-0 0  9992
2 44885  97.4000 252.0000 0000000   0.0000 316.0000 15.21936487    17
CTC2_L_00517022-15
1 44886U 26205EZ  26070.40849537  .00000000  00000+0  00000-0 0  9999
2 44886  97.4000 252.0000 0000000   0.0000 336.0000 15.21936487    10
CTC2_L_00517022-16
1 44887U 26734TF  26070.40849537  .00000000  00000+0  00000-0 0  9997
2 44887  97.4000 252.0000 0000000   0.0000 356.0000 15.21936487    13
CTC2_L_00517022-17
1 44888U 25627HU  26070.40849537  .00000000  00000+0  00000-0 0  9998
2 44888  97.4000 252.0000 0000000   0.0000  16.0000 15.21936487    17
CTC2_L_00517022-18
1 44889U 25345SG  26070.40849537  .00000000  00000+0  00000-0 0  9996
2 44889  97.4000 252.0000 0000000   0.0000  36.0000 15.21936487    10
CTC2_L_00517023-01
1 44890U 26553MR  26070.40849537  .00000000  00000+0  00000-0 0  9990
2 44890  97.4000 264.0000 0000000   0.0000  58.6667 15.21936487    14
CTC2_L_00517023-02
1 44891U 24723ND  26070.40849537  .00000000  00000+0  00000-0 0  9998
2 44891  97.4000 264.0000 0000000   0.0000  78.6667 15.21936487    17
CTC2_L_00517023-03
1 44892U 24730AG  26070.40849537  .00000000  00000+0  00000-0 0  9997
2 44892  97.4000 264.0000 0000000   0.0000  98.6667 15.21936487    10
CTC2_L_00517023-04
1 44893U 23590L   26070.40849537  .00000000  00000+0  00000-0 0  9991
2 44893  97.4000 264.0000 0000000   0.0000 118.6667 15.21936487    14
CTC2_L_00517023-05
1 44894U 24353SN  26070.40849537  .00000000  00000+0  00000-0 0  9990
2 44894  97.4000 264.0000 0000000   0.0000 138.6667 15.21936487    17
CTC2_L_00517023-06
1 44895U 22446FU  26070.40849537  .00000000  00000+0  00000-0 0  9992
2 44895  97.4000 264.0000 0000000   0.0000 158.6667 15.21936487    10
CTC2_L_00517023-07
1 44896U 25881ZM  26070.40849537  .00000000  00000+0  00000-0 0  9999
2 44896  97.4000 264.0000 0000000   0.0000 178.6667 15.21936487    13
CTC2_L_00517023-08
1 44897U 24810VU  26070.40849537  .00000000  00000+0  00000-0 0  9991
2 44897  97.4000 264.0000 0000000   0.0000 198.6667 15.21936487    16
CTC2_L_00517023-09
1 44898U 23219MH  26070.40849537  .00000000  00000+0  00000-0 0  9994
2 44898  97.4000 264.0000 0000000   0.0000 218.6667 15.21936487    10
CTC2_L_00517023-10
1 44899U 25824TC  26070.40849537  .00000000  00000+0  00000-0 0  9999
2 44899  97.4000 264.0000 0000000   0.0000 238.6667 15.21936487    13
CTC2_L_00517023-11
1 44900U 24750OR  26070.40849537  .00000000  00000+0  00000-0 0  9999
2 44900  97.4000 264.0000 0000000   0.0000 258.6667 15.21936487    18
CTC2_L_00517023-12
1 44901U 23888OD  26070.40849537  .00000000  00000+0  00000-0 0  9991
2 44901  97.4000 264.0000 0000000   0.0000 278.6667 15.21936487    11
CTC2_L_00517023-13
1 44902U 22293ZW  26070.40849537  .00000000  00000+0  00000-0 0  9991
2 44902  97.4000 264.0000 0000000   0.0000 298.6667 15.21936487    14
CTC2_L_00517023-14
1 44903U 22566LK  26070.40849537  .00000000  00000+0  00000-0 0  9995
2 44903  97.4000 264.0000 0000000   0.0000 318.6667 15.21936487    18
CTC2_L_00517023-15
1 44904U 25811CQ  26070.40849537  .00000000  00000+0  00000-0 0  9992
2 44904  97.4000 264.0000 0000000   0.0000 338.6667 15.21936487    11
CTC2_L_00517023-16
1 44905U 25319MM  26070.40849537  .00000000  00000+0  00000-0 0  9996
2 44905  97.4000 264.0000 0000000   0.0000 358.6667 15.21936487    14
CTC2_L_00517023-17
1 44906U 22710GI  26070.40849537  .00000000  00000+0  00000-0 0  9999
2 44906  97.4000 264.0000 0000000   0.0000  18.6667 15.21936487    18
CTC2_L_00517023-18
1 44907U 26540VJ  26070.40849537  .00000000  00000+0  00000-0 0  9995
2 44907  97.4000 264.0000 0000000   0.0000  38.6667 15.21936487    11
CTC2_L_00517024-01
1 44908U 26496JC  26070.40849537  .00000000  00000+0  00000-0 0  9996
2 44908  97.4000 276.0000 0000000   0.0000  61.3333 15.21936487    18
CTC2_L_00517024-02
1 44909U 22967NZ  26070.40849537  .00000000  00000+0  00000-0 0  9996
2 44909  97.4000 276.0000 0000000   0.0000  81.3333 15.21936487    11
CTC2_L_00517024-03
1 44910U 24579CR  26070.40849537  .00000000  00000+0  00000-0 0  9999
2 44910  97.4000 276.0000 0000000   0.0000 101.3333 15.21936487    16
CTC2_L_00517024-04
1 44911U 23349AX  26070.40849537  .00000000  00000+0  00000-0 0  9994
2 44911  97.4000 276.0000 0000000   0.0000 121.3333 15.21936487    19
CTC2_L_00517024-05
1 44912U 26480VQ  26070.40849537  .00000000  00000+0  00000-0 0  9994
2 44912  97.4000 276.0000 0000000   0.0000 141.3333 15.21936487    12
CTC2_L_00517024-06
1 44913U 22894XL  26070.40849537  .00000000  00000+0  00000-0 0  9990
2 44913  97.4000 276.0000 0000000   0.0000 161.3333 15.21936487    15
CTC2_L_00517024-07
1 44914U 26606QD  26070.40849537  .00000000  00000+0  00000-0 0  9996
2 44914  97.4000 276.0000 0000000   0.0000 181.3333 15.21936487    18
CTC2_L_00517024-08
1 44915U 26994HU  26070.40849537  .00000000  00000+0  00000-0 0  9997
2 44915  97.4000 276.0000 0000000   0.0000 201.3333 15.21936487    12
CTC2_L_00517024-09
1 44916U 22884XE  26070.40849537  .00000000  00000+0  00000-0 0  9992
2 44916  97.4000 276.0000 0000000   0.0000 221.3333 15.21936487    15
CTC2_L_00517024-10
1 44917U 26088TX  26070.40849537  .00000000  00000+0  00000-0 0  9993
2 44917  97.4000 276.0000 0000000   0.0000 241.3333 15.21936487    18
CTC2_L_00517024-11
1 44918U 24329QE  26070.40849537  .00000000  00000+0  00000-0 0  9990
2 44918  97.4000 276.0000 0000000   0.0000 261.3333 15.21936487    11
CTC2_L_00517024-12
1 44919U 24618FU  26070.40849537  .00000000  00000+0  00000-0 0  9992
2 44919  97.4000 276.0000 0000000   0.0000 281.3333 15.21936487    14
CTC2_L_00517024-13
1 44920U 23359J   26070.40849537  .00000000  00000+0  00000-0 0  9995
2 44920  97.4000 276.0000 0000000   0.0000 301.3333 15.21936487    19
CTC2_L_00517024-14
1 44921U 25281HR  26070.40849537  .00000000  00000+0  00000-0 0  9992
2 44921  97.4000 276.0000 0000000   0.0000 321.3333 15.21936487    12
CTC2_L_00517024-15
1 44922U 23129WJ  26070.40849537  .00000000  00000+0  00000-0 0  9992
2 44922  97.4000 276.0000 0000000   0.0000 341.3333 15.21936487    15
CTC2_L_00517024-16
1 44923U 24395VN  26070.40849537  .00000000  00000+0  00000-0 0  9999
2 44923  97.4000 276.0000 0000000   0.0000   1.3333 15.21936487    19
CTC2_L_00517024-17
1 44924U 23143RW  26070.40849537  .00000000  00000+0  00000-0 0  9990
2 44924  97.4000 276.0000 0000000   0.0000  21.3333 15.21936487    12
CTC2_L_00517024-18
1 44925U 22316UP  26070.40849537  .00000000  00000+0  00000-0 0  9992
2 44925  97.4000 276.0000 0000000   0.0000  41.3333 15.21936487    15
CTC2_L_00517025-01
1 44926U 25968EE  26070.40849537  .00000000  00000+0  00000-0 0  9999
2 44926  97.4000 288.0000 0000000   0.0000  64.0000 15.21936487    12
CTC2_L_00517025-02
1 44927U 25996OF  26070.40849537  .00000000  00000+0  00000-0 0  9991
2 44927  97.4000 288.0000 0000000   0.0000  84.0000 15.21936487    15
